FIREFLY-1               
1 62701U 25009CW  26197.78893654  .00000394  00000+0  43509-4 0  9997
2 62701  97.7061 275.3045 0002700 216.0671 144.0366 14.92743173 81730
FIREFLY-2               
1 62704U 25009CZ  26197.83388135  .00000695  00000+0  72659-4 0  9991
2 62704  97.7018 275.1173 0006242 357.5595   2.5593 14.92737648 81747
FIREFLY-3               
1 62710U 25009DF  26197.81192625  .00000517  00000+0  55349-4 0  9993
2 62710  97.7052 275.3567 0004701  69.7845 290.3879 14.92801834 81753
