{"fetched_at":"2026-07-17T06:38:11.862Z","source":"https://celestrak.org/NORAD/elements/gp.php?NAME=FIREFLY&FORMAT=JSON","constellation":"pixxel","records":[{"OBJECT_NAME":"FIREFLY-1","OBJECT_ID":"2025-009CW","EPOCH":"2026-07-16T18:56:04.117056","CLASSIFICATION_TYPE":"U","MEAN_MOTION":14.92743173,"ECCENTRICITY":0.00027,"INCLINATION":97.7061,"RA_OF_ASC_NODE":275.3045,"ARG_OF_PERICENTER":216.0671,"MEAN_ANOMALY":144.0366,"EPHEMERIS_TYPE":0,"NORAD_CAT_ID":62701,"ELEMENT_SET_NO":999,"REV_AT_EPOCH":8173,"BSTAR":0.000043509,"MEAN_MOTION_DOT":0.00000394,"MEAN_MOTION_DDOT":0},{"OBJECT_NAME":"FIREFLY-2","OBJECT_ID":"2025-009CZ","EPOCH":"2026-07-16T20:00:47.348640","CLASSIFICATION_TYPE":"U","MEAN_MOTION":14.92737648,"ECCENTRICITY":0.0006242,"INCLINATION":97.7018,"RA_OF_ASC_NODE":275.1173,"ARG_OF_PERICENTER":357.5595,"MEAN_ANOMALY":2.5593,"EPHEMERIS_TYPE":0,"NORAD_CAT_ID":62704,"ELEMENT_SET_NO":999,"REV_AT_EPOCH":8174,"BSTAR":0.000072659,"MEAN_MOTION_DOT":0.00000695,"MEAN_MOTION_DDOT":0},{"OBJECT_NAME":"FIREFLY-3","OBJECT_ID":"2025-009DF","EPOCH":"2026-07-16T19:29:10.428000","CLASSIFICATION_TYPE":"U","MEAN_MOTION":14.92801834,"ECCENTRICITY":0.0004701,"INCLINATION":97.7052,"RA_OF_ASC_NODE":275.3567,"ARG_OF_PERICENTER":69.7845,"MEAN_ANOMALY":290.3879,"EPHEMERIS_TYPE":0,"NORAD_CAT_ID":62710,"ELEMENT_SET_NO":999,"REV_AT_EPOCH":8175,"BSTAR":0.000055349,"MEAN_MOTION_DOT":0.00000517,"MEAN_MOTION_DDOT":0}]}
